{"type": "FeatureCollection", "features": [ {"type": "Feature", "properties": {"norad_id": 67040, "name": "STARLINK-35786", "group": "last-30-days", "lat": -24.521847210777363, "lon": -54.88232696608597, "alt_km": 377.8752152864745, "timestamp": "2025-12-26T21:25:51.736593+00:00", "meta": {"OBJECT_NAME": "STARLINK-35786", "OBJECT_ID": "2025-294L", "EPOCH": "2025-12-26T14:00:04.000032", "MEAN_MOTION": 15.65386891, "ECCENTRICITY": 0.00013395, "INCLINATION": 42.9994, "RA_OF_ASC_NODE": 97.6557, "ARG_OF_PERICENTER": 276.8763, "MEAN_ANOMALY": 354.5933, "EPHEMERIS_TYPE": 0, "CLASSIFICATION_TYPE": "U", "NORAD_CAT_ID": 67040, "ELEMENT_SET_NO": 999, "REV_AT_EPOCH": 233, "BSTAR": -0.021430898, "MEAN_MOTION_DOT": -0.0194202, "MEAN_MOTION_DDOT": 0}, "tle": {"line1": "1 67040U 25294L   25360.58337963 -.01942020  00000+0 -21431-1 0  9990", "line2": "2 67040  42.9994  97.6557 0001339 276.8763 354.5933 15.65386891  2332"}}, "geometry": {"type": "Point", "coordinates": [-54.88232696608597, -24.521847210777363]}}, {"type": "Feature", "properties": {"norad_id": 67041, "name": "STARLINK-35765", "group": "last-30-days", "lat": -26.838104724734976, "lon": -51.31691490349107, "alt_km": 378.0136743295843, "timestamp": "2025-12-26T21:25:51.736603+00:00", "meta": {"OBJECT_NAME": "STARLINK-35765", "OBJECT_ID": "2025-294M", "EPOCH": "2025-12-26T14:00:04.000032", "MEAN_MOTION": 15.6537256, "ECCENTRICITY": 0.00013261, "INCLINATION": 42.999, "RA_OF_ASC_NODE": 97.645, "ARG_OF_PERICENTER": 276.1685, "MEAN_ANOMALY": 359.2885, "EPHEMERIS_TYPE": 0, "CLASSIFICATION_TYPE": "U", "NORAD_CAT_ID": 67041, "ELEMENT_SET_NO": 999, "REV_AT_EPOCH": 233, "BSTAR": -0.021445752, "MEAN_MOTION_DOT": -0.01942204, "MEAN_MOTION_DDOT": 0}, "tle": {"line1": "1 67041U 25294M   25360.58337963 -.01942204  00000+0 -21446-1 0  9991", "line2": "2 67041  42.9990  97.6450 0001326 276.1685 359.2885 15.65372560  2339"}}, "geometry": {"type": "Point", "coordinates": [-51.31691490349107, -26.838104724734976]}}, {"type": "Feature", "properties": {"norad_id": 67042, "name": "STARLINK-35773", "group": "last-30-days", "lat": -27.994343025318212, "lon": -49.42625516002363, "alt_km": 378.09846711526006, "timestamp": "2025-12-26T21:25:51.736616+00:00", "meta": {"OBJECT_NAME": "STARLINK-35773", "OBJECT_ID": "2025-294N", "EPOCH": "2025-12-26T14:00:04.000032", "MEAN_MOTION": 15.65364733, "ECCENTRICITY": 0.0001365, "INCLINATION": 42.9992, "RA_OF_ASC_NODE": 97.6399, "ARG_OF_PERICENTER": 277.3232, "MEAN_ANOMALY": 0.1883, "EPHEMERIS_TYPE": 0, "CLASSIFICATION_TYPE": "U", "NORAD_CAT_ID": 67042, "ELEMENT_SET_NO": 999, "REV_AT_EPOCH": 252, "BSTAR": -0.021502978, "MEAN_MOTION_DOT": -0.01946259, "MEAN_MOTION_DDOT": 0}, "tle": {"line1": "1 67042U 25294N   25360.58337963 -.01946259  00000+0 -21503-1 0  9990", "line2": "2 67042  42.9992  97.6399 0001365 277.3232   0.1883 15.65364733  2522"}}, "geometry": {"type": "Point", "coordinates": [-49.42625516002363, -27.994343025318212]}}, {"type": "Feature", "properties": {"norad_id": 67043, "name": "STARLINK-35901", "group": "last-30-days", "lat": -29.118837488641176, "lon": -47.503540997009026, "alt_km": 378.19568828854244, "timestamp": "2025-12-26T21:25:51.736629+00:00", "meta": {"OBJECT_NAME": "STARLINK-35901", "OBJECT_ID": "2025-294P", "EPOCH": "2025-12-26T14:00:04.000032", "MEAN_MOTION": 15.653513, "ECCENTRICITY": 0.00013628, "INCLINATION": 42.9991, "RA_OF_ASC_NODE": 97.6349, "ARG_OF_PERICENTER": 278.7401, "MEAN_ANOMALY": 0.8188, "EPHEMERIS_TYPE": 0, "CLASSIFICATION_TYPE": "U", "NORAD_CAT_ID": 67043, "ELEMENT_SET_NO": 999, "REV_AT_EPOCH": 252, "BSTAR": -0.02145202, "MEAN_MOTION_DOT": -0.01941256, "MEAN_MOTION_DDOT": 0}, "tle": {"line1": "1 67043U 25294P   25360.58337963 -.01941256  00000+0 -21452-1 0  9996", "line2": "2 67043  42.9991  97.6349 0001362 278.7401   0.8188 15.65351300  2528"}}, "geometry": {"type": "Point", "coordinates": [-47.503540997009026, -29.118837488641176]}}, {"type": "Feature", "properties": {"norad_id": 67044, "name": "STARLINK-35884", "group": "last-30-days", "lat": -30.20232082773457, "lon": -45.56301187396079, "alt_km": 378.2354905784805, "timestamp": "2025-12-26T21:25:51.736639+00:00", "meta": {"OBJECT_NAME": "STARLINK-35884", "OBJECT_ID": "2025-294Q", "EPOCH": "2025-12-26T14:00:04.000032", "MEAN_MOTION": 15.65344648, "ECCENTRICITY": 0.0001406, "INCLINATION": 42.9994, "RA_OF_ASC_NODE": 97.6299, "ARG_OF_PERICENTER": 278.6491, "MEAN_ANOMALY": 2.9279, "EPHEMERIS_TYPE": 0, "CLASSIFICATION_TYPE": "U", "NORAD_CAT_ID": 67044, "ELEMENT_SET_NO": 999, "REV_AT_EPOCH": 252, "BSTAR": -0.021470995, "MEAN_MOTION_DOT": -0.01942341, "MEAN_MOTION_DDOT": 0}, "tle": {"line1": "1 67044U 25294Q   25360.58337963 -.01942341  00000+0 -21471-1 0  9994", "line2": "2 67044  42.9994  97.6299 0001406 278.6491   2.9279 15.65344648  2524"}}, "geometry": {"type": "Point", "coordinates": [-45.56301187396079, -30.20232082773457]}}, {"type": "Feature", "properties": {"norad_id": 67045, "name": "STARLINK-35891", "group": "last-30-days", "lat": -31.33736648598346, "lon": -43.42317647090937, "alt_km": 378.3169127700339, "timestamp": "2025-12-26T21:25:51.736651+00:00", "meta": {"OBJECT_NAME": "STARLINK-35891", "OBJECT_ID": "2025-294R", "EPOCH": "2025-12-26T14:00:04.000032", "MEAN_MOTION": 15.65324757, "ECCENTRICITY": 0.00013894, "INCLINATION": 42.9996, "RA_OF_ASC_NODE": 97.6244, "ARG_OF_PERICENTER": 277.475, "MEAN_ANOMALY": 6.2906, "EPHEMERIS_TYPE": 0, "CLASSIFICATION_TYPE": "U", "NORAD_CAT_ID": 67045, "ELEMENT_SET_NO": 999, "REV_AT_EPOCH": 244, "BSTAR": -0.021490453, "MEAN_MOTION_DOT": -0.01942501, "MEAN_MOTION_DDOT": 0}, "tle": {"line1": "1 67045U 25294R   25360.58337963 -.01942501  00000+0 -21490-1 0  9994", "line2": "2 67045  42.9996  97.6244 0001389 277.4750   6.2906 15.65324757  2446"}}, "geometry": {"type": "Point", "coordinates": [-43.42317647090937, -31.33736648598346]}}, {"type": "Feature", "properties": {"norad_id": 67046, "name": "STARLINK-35721", "group": "last-30-days", "lat": -32.38976509136268, "lon": -41.32594005365511, "alt_km": 378.3709228949938, "timestamp": "2025-12-26T21:25:51.736662+00:00", "meta": {"OBJECT_NAME": "STARLINK-35721", "OBJECT_ID": "2025-294S", "EPOCH": "2025-12-26T14:00:04.000032", "MEAN_MOTION": 15.65308953, "ECCENTRICITY": 0.00013724, "INCLINATION": 42.9996, "RA_OF_ASC_NODE": 97.6193, "ARG_OF_PERICENTER": 275.9882, "MEAN_ANOMALY": 9.8676, "EPHEMERIS_TYPE": 0, "CLASSIFICATION_TYPE": "U", "NORAD_CAT_ID": 67046, "ELEMENT_SET_NO": 999, "REV_AT_EPOCH": 252, "BSTAR": -0.021459909, "MEAN_MOTION_DOT": -0.01938958, "MEAN_MOTION_DDOT": 0}, "tle": {"line1": "1 67046U 25294S   25360.58337963 -.01938958  00000+0 -21460-1 0  9993", "line2": "2 67046  42.9996  97.6193 0001372 275.9882   9.8676 15.65308953  2523"}}, "geometry": {"type": "Point", "coordinates": [-41.32594005365511, -32.38976509136268]}}, {"type": "Feature", "properties": {"norad_id": 67047, "name": "STARLINK-35779", "group": "last-30-days", "lat": -33.449308546153596, "lon": -39.08624315824471, "alt_km": 378.48689770503915, "timestamp": "2025-12-26T21:25:51.736672+00:00", "meta": {"OBJECT_NAME": "STARLINK-35779", "OBJECT_ID": "2025-294T", "EPOCH": "2025-12-26T14:00:04.000032", "MEAN_MOTION": 15.65289753, "ECCENTRICITY": 0.00014015, "INCLINATION": 42.9994, "RA_OF_ASC_NODE": 97.614, "ARG_OF_PERICENTER": 277.9167, "MEAN_ANOMALY": 10.1279, "EPHEMERIS_TYPE": 0, "CLASSIFICATION_TYPE": "U", "NORAD_CAT_ID": 67047, "ELEMENT_SET_NO": 999, "REV_AT_EPOCH": 233, "BSTAR": -0.0215526, "MEAN_MOTION_DOT": -0.01945033, "MEAN_MOTION_DDOT": 0}, "tle": {"line1": "1 67047U 25294T   25360.58337963 -.01945033  00000+0 -21553-1 0  9999", "line2": "2 67047  42.9994  97.6140 0001401 277.9167  10.1279 15.65289753  2334"}}, "geometry": {"type": "Point", "coordinates": [-39.08624315824471, -33.449308546153596]}}, {"type": "Feature", "properties": {"norad_id": 67048, "name": "STARLINK-35905", "group": "last-30-days", "lat": -34.36481297567805, "lon": -37.03121534052429, "alt_km": 378.52708661875204, "timestamp": "2025-12-26T21:25:51.736682+00:00", "meta": {"OBJECT_NAME": "STARLINK-35905", "OBJECT_ID": "2025-294U", "EPOCH": "2025-12-26T14:00:04.000032", "MEAN_MOTION": 15.65285342, "ECCENTRICITY": 0.00014102, "INCLINATION": 42.9996, "RA_OF_ASC_NODE": 97.6092, "ARG_OF_PERICENTER": 278.815, "MEAN_ANOMALY": 11.1749, "EPHEMERIS_TYPE": 0, "CLASSIFICATION_TYPE": "U", "NORAD_CAT_ID": 67048, "ELEMENT_SET_NO": 999, "REV_AT_EPOCH": 244, "BSTAR": -0.02152321, "MEAN_MOTION_DOT": -0.01942394, "MEAN_MOTION_DDOT": 0}, "tle": {"line1": "1 67048U 25294U   25360.58337963 -.01942394  00000+0 -21523-1 0  9994", "line2": "2 67048  42.9996  97.6092 0001410 278.8150  11.1749 15.65285342  2440"}}, "geometry": {"type": "Point", "coordinates": [-37.03121534052429, -34.36481297567805]}}, {"type": "Feature", "properties": {"norad_id": 67049, "name": "STARLINK-35877", "group": "last-30-days", "lat": -35.326150676126694, "lon": -34.731587399682894, "alt_km": 378.58244272564843, "timestamp": "2025-12-26T21:25:51.736692+00:00", "meta": {"OBJECT_NAME": "STARLINK-35877", "OBJECT_ID": "2025-294V", "EPOCH": "2025-12-26T14:00:04.000032", "MEAN_MOTION": 15.65269595, "ECCENTRICITY": 0.00014127, "INCLINATION": 42.9997, "RA_OF_ASC_NODE": 97.6034, "ARG_OF_PERICENTER": 278.1291, "MEAN_ANOMALY": 14.0026, "EPHEMERIS_TYPE": 0, "CLASSIFICATION_TYPE": "U", "NORAD_CAT_ID": 67049, "ELEMENT_SET_NO": 999, "REV_AT_EPOCH": 252, "BSTAR": -0.021533837, "MEAN_MOTION_DOT": -0.0194215, "MEAN_MOTION_DDOT": 0}, "tle": {"line1": "1 67049U 25294V   25360.58337963 -.01942150  00000+0 -21534-1 0  9997", "line2": "2 67049  42.9997  97.6034 0001412 278.1291  14.0026 15.65269595  2520"}}, "geometry": {"type": "Point", "coordinates": [-34.731587399682894, -35.326150676126694]}}]}